ONEWEB-0093             
1 45444C 20020W   22280.08628887 -.00002735  00000-0 -77271-2 0  2804
2 45444  87.8784 289.2112 0001562  89.0018 326.7060 13.11426598    15
ONEWEB-0029             
1 45445C 20020X   22280.11197174 -.00002156  00000-0 -60894-2 0  2809
2 45445  87.8779 289.1932 0001844  79.4678 356.7380 13.11420396    15
ONEWEB-0068             
1 45446C 20020Y   22280.00538609  .00000004  00000-0  11178-4 0  2801
2 45446  87.8780 289.2238 0001442  84.3641 346.6428 13.11420983    10
ONEWEB-0046             
1 45447C 20020Z   22280.07516618 -.00002922  00000-0 -82557-2 0  2805
2 45447  87.8779 289.2205 0001939  89.7758 326.4505 13.11420113    19
ONEWEB-0063             
1 45448C 20020AA  22280.10396248 -.00002053  00000-0 -57988-2 0  2800
2 45448  87.8775 289.1951 0002153  90.9063 323.4341 13.11422688    19
ONEWEB-0019             
1 45449C 20020AB  22280.24671711 -.00002809  00000-0 -79345-2 0  2807
2 45449  87.8784 289.1728 0001788  96.3810  28.0542 13.11420535    15
ONEWEB-0094             
1 45450C 20020AC  22279.99739997 -.00001067  00000-0 -27526-2 0  2797
2 45450  87.9060 273.8639 0001868  92.9764 229.8912 13.17640036    13
ONEWEB-0087             
1 45451C 20020AD  22280.20399720 -.00002220  00000-0 -62708-2 0  2805
2 45451  87.8780 289.2225 0001782  77.9897  45.9265 13.11417971    11
ONEWEB-0082             
1 45452C 20020AE  22280.11476109 -.00002339  00000-0 -66081-2 0  2802
2 45452  87.8770 289.1657 0001397  77.8725 334.4676 13.11414307    12
ONEWEB-0050             
1 45453C 20020AF  22280.20674769  .00010496  00000-0  89689-3 0  2806
2 45453  87.5449 205.6031 0027131 158.0157 302.3607 14.97478330    16
ONEWEB-0034             
1 45454C 20020AG  22280.22414766 -.00003014  00000-0 -85151-2 0  2807
2 45454  87.8764 289.1645 0001805  85.9518  37.8506 13.11413902    14
ONEWEB-0060             
1 45455C 20020AH  22279.83698331  .00001036  00000-0  29261-2 0  2793
2 45455  87.8774 289.2542 0001846  90.5961 329.3128 13.11414468    19
ONEWEB-0086             
1 45456C 20020AJ  22279.85433285  .00001866  00000-0  52716-2 0  2793
2 45456  87.8785 289.2414 0001635  84.1841 327.5578 13.11418750    19
ONEWEB-0088             
1 45457C 20020AK  22279.68838377 -.00002668  00000-0 -75389-2 0  2790
2 45457  87.8765 289.2836 0001908  85.8457  19.4694 13.11414287    17
ONEWEB-0102             
1 47258C 20100A   22280.14389303 -.00003195  00000-0 -88938-2 0  2805
2 47258  87.8890 258.6164 0001657  95.7234  27.8410 13.12439810    14
ONEWEB-0109             
1 47259C 20100B   22280.15468007 -.00003241  00000-0 -90208-2 0  2801
2 47259  87.8858 258.6785 0001863  85.0360  39.5184 13.12443512    11
ONEWEB-0110             
1 47260C 20100C   22280.10189072 -.00003171  00000-0 -88245-2 0  2800
2 47260  87.8864 258.6637 0001643  87.1104  38.1724 13.12451871    13
ONEWEB-0111             
1 47261C 20100D   22280.13351109 -.00002690  00000-0 -74878-2 0  2808
2 47261  87.8848 258.6402 0001726  91.6244  32.9778 13.12438173    14
ONEWEB-0114             
1 47262C 20100E   22280.23837221  .00000171  00000-0  47471-3 0  2804
2 47262  87.8863 258.6430 0002016 105.2430   4.4445 13.12443483    10
ONEWEB-0117             
1 47263C 20100F   22280.08071016 -.00004602  00000-0 -12809-1 0  2800
2 47263  87.8862 258.6975 0001785  82.2234  43.0040 13.12448468    10
ONEWEB-0118             
1 47264C 20100G   22279.79251572  .00003620  00000-0  10075-1 0  2792
2 47264  87.8863 258.7068 0002537  99.6007 314.7476 13.12438346    17
ONEWEB-0119             
1 47265C 20100H   22279.82933285  .00002382  00000-0  66286-2 0  2795
2 47265  87.8887 258.6807 0001803  84.1491  14.0358 13.12436954    17
ONEWEB-0120             
1 47266C 20100J   22280.00261988 -.00002785  00000-0 -77495-2 0  2807
2 47266  87.8830 258.7647 0002060  95.6899 320.7967 13.12449322    10
ONEWEB-0121             
1 47267C 20100K   22279.84251157  .00001784  00000-0  49660-2 0  2792
2 47267  87.8795 258.7965 0001830  80.2842  20.2181 13.12442649    11
ONEWEB-0122             
1 47268C 20100L   22279.83559442  .00001997  00000-0  55585-2 0  2799
2 47268  87.8853 258.7218 0001759  91.5059   6.3222 13.12438218    11
ONEWEB-0123             
1 47269C 20100M   22279.89461063  .00001229  00000-0  34196-2 0  2790
2 47269  87.8879 258.6810 0001928  87.2799 309.2050 13.12441449    12
ONEWEB-0124             
1 47270C 20100N   22280.12897405 -.00002482  00000-0 -69083-2 0  2802
2 47270  87.8849 258.6718 0001756  74.2904  48.8911 13.12442398    17
ONEWEB-0125             
1 47271C 20100P   22280.10573331 -.00002822  00000-0 -78547-2 0  2803
2 47271  87.8865 258.6908 0001979  90.0929  33.2710 13.12449870    14
ONEWEB-0126             
1 47272C 20100Q   22279.89076803  .00002015  00000-0  56100-2 0  2791
2 47272  87.8849 258.7299 0001874  95.6405 327.6607 13.12429722    14
ONEWEB-0127             
1 47273C 20100R   22280.09529351 -.00003735  00000-0 -10394-1 0  2805
2 47273  87.8902 258.6174 0001908  88.4105  35.6955 13.12450789    10
ONEWEB-0128             
1 47274C 20100S   22280.11648562 -.00002271  00000-0 -63218-2 0  2803
2 47274  87.8866 258.6458 0001471  83.2430  40.9232 13.12443099    17
ONEWEB-0129             
1 47275C 20100T   22280.15779350 -.00002151  00000-0 -59855-2 0  2807
2 47275  87.8864 258.6927 0002607 129.2177 279.9872 13.12450127    12
ONEWEB-0130             
1 47276C 20100U   22280.12271249 -.00002272  00000-0 -63235-2 0  2800
2 47276  87.8853 258.6913 0001825  87.0615  36.4571 13.12443317    10
ONEWEB-0131             
1 47277C 20100V   22280.12064072 -.00002245  00000-0 -62491-2 0  2808
2 47277  87.8853 258.6375 0001793  81.4365  42.3995 13.12444947    13
ONEWEB-0132             
1 47278C 20100W   22280.05815229 -.00004438  00000-0 -12352-1 0  2805
2 47278  87.8853 258.6509 0001919  95.8691 312.8657 13.12444775    13
ONEWEB-0133             
1 47279C 20100X   22280.09114998 -.00004089  00000-0 -11379-1 0  2805
2 47279  87.8899 258.6351 0001838  83.6661  40.8616 13.12451144    12
ONEWEB-0134             
1 47280C 20100Y   22280.04392776 -.00003455  00000-0 -96169-2 0  2801
2 47280  87.8864 258.6612 0001592  91.3143 320.2252 13.12441753    10
ONEWEB-0135             
1 47281C 20100Z   22280.25259674  .00001817  00000-0  50581-2 0  2800
2 47281  87.8898 258.5889 0001788  89.8113  17.0901 13.12442700    14
ONEWEB-0136             
1 47282C 20100AA  22280.12483053 -.00002319  00000-0 -64556-2 0  2804
2 47282  87.8851 258.7000 0001119 109.9987  13.5971 13.12440596    11
ONEWEB-0137             
1 47283C 20100AB  22280.08486526 -.00004478  00000-0 -12463-1 0  2805
2 47283  87.8861 258.6715 0001967  91.9713  32.8990 13.12447881    12
ONEWEB-0138             
1 47284C 20100AC  22280.21404350 -.00000165  00000-0 -45955-3 0  2809
2 47284  87.8849 258.6573 0001766  91.7431  33.1171 13.12436777    10
ONEWEB-0139             
1 47285C 20100AD  22280.18628887 -.00000348  00000-0 -96808-3 0  2805
2 47285  87.8862 258.7009 0001614  86.8958  36.9507 13.12452535    16
ONEWEB-0140             
1 47286C 20100AE  22280.11546711 -.00002874  00000-0 -80002-2 0  2808
2 47286  87.8850 258.6490 0001727  90.0116 319.3772 13.12438916    14
ONEWEB-0141             
1 47287C 20100AF  22280.21996942 -.00000715  00000-0 -19907-2 0  2803
2 47287  87.8856 258.6286 0002182  94.3245 343.4966 13.12430490    12
ONEWEB-0142             
1 47288C 20100AG  22280.21164767 -.00000722  00000-0 -20094-2 0  2803
2 47288  87.8852 258.6793 0002022  92.0846 346.3962 13.12442329    19
ONEWEB-0143             
1 47289C 20100AH  22279.77899720  .00002730  00000-0  75998-2 0  2797
2 47289  87.8864 258.7288 0001938  82.3586 328.2106 13.12435561    10
ONEWEB-0144             
1 47290C 20100AJ  22279.90083748  .00000716  00000-0  19942-2 0  2798
2 47290  87.8853 258.7184 0001624  91.7761 304.1730 13.12439417    16
ONEWEB-0145             
1 47291C 20100AK  22280.19462221  .00000159  00000-0  44221-3 0  2801
2 47291  87.8890 258.6137 0001960  88.2929  34.7889 13.12449132    11
ONEWEB-0146             
1 47292C 20100AL  22280.11442544 -.00002330  00000-0 -64855-2 0  2809
2 47292  87.8862 258.6840 0002161  69.9069  54.5131 13.12443654    10
ONEWEB-0147             
1 47293C 20100AM  22280.08278192 -.00034685  00000-0 -96571-1 0  2809
2 47293  87.8859 258.6584 0001398  93.4625  31.6549 13.12451019    16
ONEWEB-0115             
1 48042C 21025A   22280.16890462  .00001814  00000-0  49740-2 0  2801
2 48042  87.9113 228.2064 0001889  73.1608  33.3209 13.13471984    16
ONEWEB-0152             
1 48043C 21025B   22279.79148563  .00003202  00000-0  87780-2 0  2794
2 48043  87.9041 228.2622 0001835  78.3851 344.4772 13.13468835    17
ONEWEB-0153             
1 48044C 21025C   22279.84356896  .00000222  00000-0  60891-3 0  2795
2 48044  87.9019 228.2539 0001923  80.8373 338.1896 13.13467852    10
ONEWEB-0154             
1 48045C 21025D   22280.06785138 -.00002809  00000-0 -77010-2 0  2804
2 48045  87.8966 228.2827 0001895  78.3425 330.7245 13.13472481    19
ONEWEB-0116             
1 48046C 21025E   22280.12620786  .00001459  00000-0  40017-2 0  2804
2 48046  87.8971 228.2555 0002088  70.8312  53.8522 13.13463561    11
ONEWEB-0150             
1 48047C 21025F   22280.09843007 -.00000714  00000-0 -19579-2 0  2808
2 48047  87.9133 228.1999 0002096  85.5529  37.9505 13.13474618    15
ONEWEB-0107             
1 48048C 21025G   22280.10087221 -.00000498  00000-0 -13650-2 0  2802
2 48048  87.9119 228.2093 0002033  92.8548  32.0873 13.13473177    12
ONEWEB-0101             
1 48049C 21025H   22280.21303655  .00001877  00000-0  51467-2 0  2805
2 48049  87.9056 228.2047 0001847  87.8569  17.3043 13.13463131    15
ONEWEB-0113             
1 48050C 21025J   22280.18972638  .00002911  00000-0  79804-2 0  2801
2 48050  87.9009 228.2403 0001959  75.5218  29.2796 13.13466181    15
